SL-3 R/B                
1 13403U 82079B   25359.74960308  .00006469  00000+0  26542-3 0  9994
2 13403  81.1471 280.3249 0026927  57.3634 303.0192 15.23737877366437
SL-14 R/B               
1 13553U 82092B   25359.67204273  .00000481  00000+0  51357-4 0  9990
2 13553  82.5670 210.6171 0020198 182.5767 241.0943 14.86567496317933
SL-3 R/B                
1 13819U 83010B   25359.73661159  .00015464  00000+0  33896-3 0  9997
2 13819  81.1045  92.7511 0016530 304.9059  55.0630 15.43810029346525
SL-3 R/B                
1 14208U 83075B   25359.74918742  .00011183  00000+0  31436-3 0  9997
2 14208  97.6113 356.6714 0024074 130.5176 229.8169 15.36394051318798
COSMOS 1536             
1 14699U 84013A   25359.55596192  .00005969  00000+0  25437-3 0  9993
2 14699  82.5447 181.4524 0014522 178.5303 181.5979 15.22663279261335
SL-14 R/B               
1 14820U 84027B   25359.61984951  .00000585  00000+0  64178-4 0  9990
2 14820  82.5422 314.4771 0016959 214.6677 145.3435 14.85887820236636
SL-8 R/B                
1 15483U 85006B   25359.56399683  .00000275  00000+0  99935-4 0  9995
2 15483  74.0460  37.5401 0019228 327.1727 143.0341 14.37728714143373
SL-12 R/B(2)            
1 15772U 85042D   25359.68374921  .00000033  00000+0  36520-4 0  9990
2 15772  71.1069 244.0750 0037267 242.4840 147.6792 14.21955729103879
SL-14 R/B               
1 15945U 85069B   25359.69451257  .00000577  00000+0  62482-4 0  9999
2 15945  82.5273  94.5247 0020302  78.7194 281.6303 14.86338895161845
SL-16 R/B               
1 16182U 85097B   25359.58264058 -.00000189  00000+0 -70536-4 0  9993
2 16182  71.0036 296.5652 0007524 350.6408 183.2722 14.16587298 76735
SL-14 R/B               
1 16496U 86006B   25359.42082476  .00000623  00000+0  63501-4 0  9992
2 16496  82.5271 329.6186 0077288 157.7566 202.7035 14.86686987138179
COSMOS 1743             
1 16719U 86034A   25358.90094374  .00031881  00000+0  51251-3 0  9991
2 16719  82.5352 151.9536 0004971 202.7021 157.4012 15.52832870168620
