CCSDS_OMM_VERS = 2.0
CREATION_DATE  = 
ORIGINATOR     = 

OBJECT_NAME    = SL-3 R/B
OBJECT_ID      = 1982-079B
CENTER_NAME    = EARTH
REF_FRAME      = TEME
TIME_SYSTEM    = UTC
MEAN_ELEMENT_THEORY = SGP/SGP4

EPOCH          = 2025-12-25T17:59:25.706112
MEAN_MOTION    = 15.23737877
ECCENTRICITY   = .0026927
INCLINATION    = 81.1471
RA_OF_ASC_NODE = 280.3249
ARG_OF_PERICENTER = 57.3634
MEAN_ANOMALY   = 303.0192

EPHEMERIS_TYPE = 0
CLASSIFICATION_TYPE = U
NORAD_CAT_ID   = 13403
ELEMENT_SET_NO = 999
REV_AT_EPOCH   = 36643
BSTAR          = .26542E-3
MEAN_MOTION_DOT = .6469E-4
MEAN_MOTION_DDOT = 0

CCSDS_OMM_VERS = 2.0
CREATION_DATE  = 
ORIGINATOR     = 

OBJECT_NAME    = SL-14 R/B
OBJECT_ID      = 1982-092B
CENTER_NAME    = EARTH
REF_FRAME      = TEME
TIME_SYSTEM    = UTC
MEAN_ELEMENT_THEORY = SGP/SGP4

EPOCH          = 2025-12-25T16:07:44.491872
MEAN_MOTION    = 14.86567496
ECCENTRICITY   = .0020198
INCLINATION    = 82.5670
RA_OF_ASC_NODE = 210.6171
ARG_OF_PERICENTER = 182.5767
MEAN_ANOMALY   = 241.0943

EPHEMERIS_TYPE = 0
CLASSIFICATION_TYPE = U
NORAD_CAT_ID   = 13553
ELEMENT_SET_NO = 999
REV_AT_EPOCH   = 31793
BSTAR          = .51357E-4
MEAN_MOTION_DOT = .481E-5
MEAN_MOTION_DDOT = 0

CCSDS_OMM_VERS = 2.0
CREATION_DATE  = 
ORIGINATOR     = 

OBJECT_NAME    = SL-3 R/B
OBJECT_ID      = 1983-010B
CENTER_NAME    = EARTH
REF_FRAME      = TEME
TIME_SYSTEM    = UTC
MEAN_ELEMENT_THEORY = SGP/SGP4

EPOCH          = 2025-12-25T17:40:43.241376
MEAN_MOTION    = 15.43810029
ECCENTRICITY   = .001653
INCLINATION    = 81.1045
RA_OF_ASC_NODE = 92.7511
ARG_OF_PERICENTER = 304.9059
MEAN_ANOMALY   = 55.0630

EPHEMERIS_TYPE = 0
CLASSIFICATION_TYPE = U
NORAD_CAT_ID   = 13819
ELEMENT_SET_NO = 999
REV_AT_EPOCH   = 34652
BSTAR          = .33896E-3
MEAN_MOTION_DOT = .15464E-3
MEAN_MOTION_DDOT = 0

CCSDS_OMM_VERS = 2.0
CREATION_DATE  = 
ORIGINATOR     = 

OBJECT_NAME    = SL-3 R/B
OBJECT_ID      = 1983-075B
CENTER_NAME    = EARTH
REF_FRAME      = TEME
TIME_SYSTEM    = UTC
MEAN_ELEMENT_THEORY = SGP/SGP4

EPOCH          = 2025-12-25T17:58:49.793088
MEAN_MOTION    = 15.36394051
ECCENTRICITY   = .0024074
INCLINATION    = 97.6113
RA_OF_ASC_NODE = 356.6714
ARG_OF_PERICENTER = 130.5176
MEAN_ANOMALY   = 229.8169

EPHEMERIS_TYPE = 0
CLASSIFICATION_TYPE = U
NORAD_CAT_ID   = 14208
ELEMENT_SET_NO = 999
REV_AT_EPOCH   = 31879
BSTAR          = .31436E-3
MEAN_MOTION_DOT = .11183E-3
MEAN_MOTION_DDOT = 0

CCSDS_OMM_VERS = 2.0
CREATION_DATE  = 
ORIGINATOR     = 

OBJECT_NAME    = COSMOS 1536
OBJECT_ID      = 1984-013A
CENTER_NAME    = EARTH
REF_FRAME      = TEME
TIME_SYSTEM    = UTC
MEAN_ELEMENT_THEORY = SGP/SGP4

EPOCH          = 2025-12-25T13:20:35.109888
MEAN_MOTION    = 15.22663279
ECCENTRICITY   = .0014522
INCLINATION    = 82.5447
RA_OF_ASC_NODE = 181.4524
ARG_OF_PERICENTER = 178.5303
MEAN_ANOMALY   = 181.5979

EPHEMERIS_TYPE = 0
CLASSIFICATION_TYPE = U
NORAD_CAT_ID   = 14699
ELEMENT_SET_NO = 999
REV_AT_EPOCH   = 26133
BSTAR          = .25437E-3
MEAN_MOTION_DOT = .5969E-4
MEAN_MOTION_DDOT = 0

CCSDS_OMM_VERS = 2.0
CREATION_DATE  = 
ORIGINATOR     = 

OBJECT_NAME    = SL-14 R/B
OBJECT_ID      = 1984-027B
CENTER_NAME    = EARTH
REF_FRAME      = TEME
TIME_SYSTEM    = UTC
MEAN_ELEMENT_THEORY = SGP/SGP4

EPOCH          = 2025-12-25T14:52:34.997664
MEAN_MOTION    = 14.85887820
ECCENTRICITY   = .0016959
INCLINATION    = 82.5422
RA_OF_ASC_NODE = 314.4771
ARG_OF_PERICENTER = 214.6677
MEAN_ANOMALY   = 145.3435

EPHEMERIS_TYPE = 0
CLASSIFICATION_TYPE = U
NORAD_CAT_ID   = 14820
ELEMENT_SET_NO = 999
REV_AT_EPOCH   = 23663
BSTAR          = .64178E-4
MEAN_MOTION_DOT = .585E-5
MEAN_MOTION_DDOT = 0

CCSDS_OMM_VERS = 2.0
CREATION_DATE  = 
ORIGINATOR     = 

OBJECT_NAME    = SL-8 R/B
OBJECT_ID      = 1985-006B
CENTER_NAME    = EARTH
REF_FRAME      = TEME
TIME_SYSTEM    = UTC
MEAN_ELEMENT_THEORY = SGP/SGP4

EPOCH          = 2025-12-25T13:32:09.326112
MEAN_MOTION    = 14.37728714
ECCENTRICITY   = .0019228
INCLINATION    = 74.0460
RA_OF_ASC_NODE = 37.5401
ARG_OF_PERICENTER = 327.1727
MEAN_ANOMALY   = 143.0341

EPHEMERIS_TYPE = 0
CLASSIFICATION_TYPE = U
NORAD_CAT_ID   = 15483
ELEMENT_SET_NO = 999
REV_AT_EPOCH   = 14337
BSTAR          = .99935E-4
MEAN_MOTION_DOT = .275E-5
MEAN_MOTION_DDOT = 0

CCSDS_OMM_VERS = 2.0
CREATION_DATE  = 
ORIGINATOR     = 

OBJECT_NAME    = SL-12 R/B(2)
OBJECT_ID      = 1985-042D
CENTER_NAME    = EARTH
REF_FRAME      = TEME
TIME_SYSTEM    = UTC
MEAN_ELEMENT_THEORY = SGP/SGP4

EPOCH          = 2025-12-25T16:24:35.931744
MEAN_MOTION    = 14.21955729
ECCENTRICITY   = .0037267
INCLINATION    = 71.1069
RA_OF_ASC_NODE = 244.0750
ARG_OF_PERICENTER = 242.4840
MEAN_ANOMALY   = 147.6792

EPHEMERIS_TYPE = 0
CLASSIFICATION_TYPE = U
NORAD_CAT_ID   = 15772
ELEMENT_SET_NO = 999
REV_AT_EPOCH   = 10387
BSTAR          = .3652E-4
MEAN_MOTION_DOT = .33E-6
MEAN_MOTION_DDOT = 0

CCSDS_OMM_VERS = 2.0
CREATION_DATE  = 
ORIGINATOR     = 

OBJECT_NAME    = SL-14 R/B
OBJECT_ID      = 1985-069B
CENTER_NAME    = EARTH
REF_FRAME      = TEME
TIME_SYSTEM    = UTC
MEAN_ELEMENT_THEORY = SGP/SGP4

EPOCH          = 2025-12-25T16:40:05.886048
MEAN_MOTION    = 14.86338895
ECCENTRICITY   = .0020302
INCLINATION    = 82.5273
RA_OF_ASC_NODE = 94.5247
ARG_OF_PERICENTER = 78.7194
MEAN_ANOMALY   = 281.6303

EPHEMERIS_TYPE = 0
CLASSIFICATION_TYPE = U
NORAD_CAT_ID   = 15945
ELEMENT_SET_NO = 999
REV_AT_EPOCH   = 16184
BSTAR          = .62482E-4
MEAN_MOTION_DOT = .577E-5
MEAN_MOTION_DDOT = 0

CCSDS_OMM_VERS = 2.0
CREATION_DATE  = 
ORIGINATOR     = 

OBJECT_NAME    = SL-16 R/B
OBJECT_ID      = 1985-097B
CENTER_NAME    = EARTH
REF_FRAME      = TEME
TIME_SYSTEM    = UTC
MEAN_ELEMENT_THEORY = SGP/SGP4

EPOCH          = 2025-12-25T13:59:00.146112
MEAN_MOTION    = 14.16587298
ECCENTRICITY   = .0007524
INCLINATION    = 71.0036
RA_OF_ASC_NODE = 296.5652
ARG_OF_PERICENTER = 350.6408
MEAN_ANOMALY   = 183.2722

EPHEMERIS_TYPE = 0
CLASSIFICATION_TYPE = U
NORAD_CAT_ID   = 16182
ELEMENT_SET_NO = 999
REV_AT_EPOCH   = 7673
BSTAR          = -.70536E-4
MEAN_MOTION_DOT = -.189E-5
MEAN_MOTION_DDOT = 0

CCSDS_OMM_VERS = 2.0
CREATION_DATE  = 
ORIGINATOR     = 

OBJECT_NAME    = SL-14 R/B
OBJECT_ID      = 1986-006B
CENTER_NAME    = EARTH
REF_FRAME      = TEME
TIME_SYSTEM    = UTC
MEAN_ELEMENT_THEORY = SGP/SGP4

EPOCH          = 2025-12-25T10:05:59.259264
MEAN_MOTION    = 14.86686987
ECCENTRICITY   = .0077288
INCLINATION    = 82.5271
RA_OF_ASC_NODE = 329.6186
ARG_OF_PERICENTER = 157.7566
MEAN_ANOMALY   = 202.7035

EPHEMERIS_TYPE = 0
CLASSIFICATION_TYPE = U
NORAD_CAT_ID   = 16496
ELEMENT_SET_NO = 999
REV_AT_EPOCH   = 13817
BSTAR          = .63501E-4
MEAN_MOTION_DOT = .623E-5
MEAN_MOTION_DDOT = 0

CCSDS_OMM_VERS = 2.0
CREATION_DATE  = 
ORIGINATOR     = 

OBJECT_NAME    = COSMOS 1743
OBJECT_ID      = 1986-034A
CENTER_NAME    = EARTH
REF_FRAME      = TEME
TIME_SYSTEM    = UTC
MEAN_ELEMENT_THEORY = SGP/SGP4

EPOCH          = 2025-12-24T21:37:21.539136
MEAN_MOTION    = 15.52832870
ECCENTRICITY   = .0004971
INCLINATION    = 82.5352
RA_OF_ASC_NODE = 151.9536
ARG_OF_PERICENTER = 202.7021
MEAN_ANOMALY   = 157.4012

EPHEMERIS_TYPE = 0
CLASSIFICATION_TYPE = U
NORAD_CAT_ID   = 16719
ELEMENT_SET_NO = 999
REV_AT_EPOCH   = 16862
BSTAR          = .51251E-3
MEAN_MOTION_DOT = .31881E-3
MEAN_MOTION_DDOT = 0

